STARLINK-36925          
1 68042U 26041C   26077.84287656  .00171349  00000+0  10971-2 0  9995
2 68042  53.1594  16.4424 0001171 105.9301 254.1848 15.75288029  2662
STARLINK-36902          
1 68043U 26041D   26077.82583969  .00263138  00000+0  12901-2 0  9993
2 68043  53.1602  16.3303 0001474  65.6915 294.4261 15.80980818  2664
STARLINK-36966          
1 68044U 26041E   26077.83335647  .00069121  00000+0  45197-3 0  9993
2 68044  53.1598  16.4363 0001201 108.4834 223.3342 15.75210046  3845
STARLINK-36864          
1 68045U 26041F   26077.83335647  .00084621  00000+0  55175-3 0  9993
2 68045  53.1599  16.4324 0001445 102.0314 231.6625 15.75194111  3847
STARLINK-36321          
1 68046U 26041G   26077.82283956  .00554889  00000+0  26078-2 0  9995
2 68046  53.1599  16.3091 0002347 121.3774 238.7478 15.81127345  2669
STARLINK-36181          
1 68047U 26041H   26077.82358911  .00414148  00000+0  19889-2 0  9995
2 68047  53.1601  16.3137 0001717 135.2531 224.8631 15.81025422  2660
STARLINK-36318          
1 68048U 26041J   26077.83335647  .00064362  00000+0  42143-3 0  9997
2 68048  53.1606  16.3832 0001015  99.7391 257.8371 15.75206832  3844
STARLINK-36885          
1 68049U 26041K   26077.83335647  .00081027  00000+0  52874-3 0  9997
2 68049  53.1605  16.3790 0000881 113.2131 246.2363 15.75193791  3843
STARLINK-36945          
1 68050U 26041L   26077.82134013  .00541492  00000+0  25503-2 0  9997
2 68050  53.1600  16.2992 0002021 125.6348 234.4863 15.81114722  2665
STARLINK-35911          
1 68051U 26041M   26077.31408463  .00189979  00000+0  94187-3 0  9998
2 68051  53.1598  18.8240 0001063  72.6086 287.5053 15.80945826  2588
STARLINK-35808          
1 68052U 26041N   26077.81908842  .00525354  00000+0  24792-2 0  9995
2 68052  53.1600  16.2835 0002006 130.5238 229.5960 15.81114334  2661
STARLINK-36919          
1 68053U 26041P   26077.81833844  .00378195  00000+0  18226-2 0  9999
2 68053  53.1603  16.2776 0001416 122.2030 237.9130 15.81044506  2666
