CCSDS_OMM_VERS = 2.0
CREATION_DATE  = 
ORIGINATOR     = 

OBJECT_NAME    = STARLINK-36925
OBJECT_ID      = 2026-041C
CENTER_NAME    = EARTH
REF_FRAME      = TEME
TIME_SYSTEM    = UTC
MEAN_ELEMENT_THEORY = SGP/SGP4

EPOCH          = 2026-03-18T20:13:44.534784
MEAN_MOTION    = 15.75288029
ECCENTRICITY   = .0001171
INCLINATION    = 53.1594
RA_OF_ASC_NODE = 16.4424
ARG_OF_PERICENTER = 105.9301
MEAN_ANOMALY   = 254.1848

EPHEMERIS_TYPE = 0
CLASSIFICATION_TYPE = U
NORAD_CAT_ID   = 68042
ELEMENT_SET_NO = 999
REV_AT_EPOCH   = 266
BSTAR          = .10971E-2
MEAN_MOTION_DOT = .171349E-2
MEAN_MOTION_DDOT = 0

CCSDS_OMM_VERS = 2.0
CREATION_DATE  = 
ORIGINATOR     = 

OBJECT_NAME    = STARLINK-36902
OBJECT_ID      = 2026-041D
CENTER_NAME    = EARTH
REF_FRAME      = TEME
TIME_SYSTEM    = UTC
MEAN_ELEMENT_THEORY = SGP/SGP4

EPOCH          = 2026-03-18T19:49:12.549216
MEAN_MOTION    = 15.80980818
ECCENTRICITY   = .0001474
INCLINATION    = 53.1602
RA_OF_ASC_NODE = 16.3303
ARG_OF_PERICENTER = 65.6915
MEAN_ANOMALY   = 294.4261

EPHEMERIS_TYPE = 0
CLASSIFICATION_TYPE = U
NORAD_CAT_ID   = 68043
ELEMENT_SET_NO = 999
REV_AT_EPOCH   = 266
BSTAR          = .12901E-2
MEAN_MOTION_DOT = .263138E-2
MEAN_MOTION_DDOT = 0

CCSDS_OMM_VERS = 2.0
CREATION_DATE  = 
ORIGINATOR     = 

OBJECT_NAME    = STARLINK-36966
OBJECT_ID      = 2026-041E
CENTER_NAME    = EARTH
REF_FRAME      = TEME
TIME_SYSTEM    = UTC
MEAN_ELEMENT_THEORY = SGP/SGP4

EPOCH          = 2026-03-18T20:00:01.999008
MEAN_MOTION    = 15.75210046
ECCENTRICITY   = .0001201
INCLINATION    = 53.1598
RA_OF_ASC_NODE = 16.4363
ARG_OF_PERICENTER = 108.4834
MEAN_ANOMALY   = 223.3342

EPHEMERIS_TYPE = 0
CLASSIFICATION_TYPE = U
NORAD_CAT_ID   = 68044
ELEMENT_SET_NO = 999
REV_AT_EPOCH   = 384
BSTAR          = .45197E-3
MEAN_MOTION_DOT = .69121E-3
MEAN_MOTION_DDOT = 0

CCSDS_OMM_VERS = 2.0
CREATION_DATE  = 
ORIGINATOR     = 

OBJECT_NAME    = STARLINK-36864
OBJECT_ID      = 2026-041F
CENTER_NAME    = EARTH
REF_FRAME      = TEME
TIME_SYSTEM    = UTC
MEAN_ELEMENT_THEORY = SGP/SGP4

EPOCH          = 2026-03-18T20:00:01.999008
MEAN_MOTION    = 15.75194111
ECCENTRICITY   = .0001445
INCLINATION    = 53.1599
RA_OF_ASC_NODE = 16.4324
ARG_OF_PERICENTER = 102.0314
MEAN_ANOMALY   = 231.6625

EPHEMERIS_TYPE = 0
CLASSIFICATION_TYPE = U
NORAD_CAT_ID   = 68045
ELEMENT_SET_NO = 999
REV_AT_EPOCH   = 384
BSTAR          = .55175E-3
MEAN_MOTION_DOT = .84621E-3
MEAN_MOTION_DDOT = 0

CCSDS_OMM_VERS = 2.0
CREATION_DATE  = 
ORIGINATOR     = 

OBJECT_NAME    = STARLINK-36321
OBJECT_ID      = 2026-041G
CENTER_NAME    = EARTH
REF_FRAME      = TEME
TIME_SYSTEM    = UTC
MEAN_ELEMENT_THEORY = SGP/SGP4

EPOCH          = 2026-03-18T19:44:53.337984
MEAN_MOTION    = 15.81127345
ECCENTRICITY   = .0002347
INCLINATION    = 53.1599
RA_OF_ASC_NODE = 16.3091
ARG_OF_PERICENTER = 121.3774
MEAN_ANOMALY   = 238.7478

EPHEMERIS_TYPE = 0
CLASSIFICATION_TYPE = U
NORAD_CAT_ID   = 68046
ELEMENT_SET_NO = 999
REV_AT_EPOCH   = 266
BSTAR          = .26078E-2
MEAN_MOTION_DOT = .554889E-2
MEAN_MOTION_DDOT = 0

CCSDS_OMM_VERS = 2.0
CREATION_DATE  = 
ORIGINATOR     = 

OBJECT_NAME    = STARLINK-36181
OBJECT_ID      = 2026-041H
CENTER_NAME    = EARTH
REF_FRAME      = TEME
TIME_SYSTEM    = UTC
MEAN_ELEMENT_THEORY = SGP/SGP4

EPOCH          = 2026-03-18T19:45:58.099104
MEAN_MOTION    = 15.81025422
ECCENTRICITY   = .0001717
INCLINATION    = 53.1601
RA_OF_ASC_NODE = 16.3137
ARG_OF_PERICENTER = 135.2531
MEAN_ANOMALY   = 224.8631

EPHEMERIS_TYPE = 0
CLASSIFICATION_TYPE = U
NORAD_CAT_ID   = 68047
ELEMENT_SET_NO = 999
REV_AT_EPOCH   = 266
BSTAR          = .19889E-2
MEAN_MOTION_DOT = .414148E-2
MEAN_MOTION_DDOT = 0

CCSDS_OMM_VERS = 2.0
CREATION_DATE  = 
ORIGINATOR     = 

OBJECT_NAME    = STARLINK-36318
OBJECT_ID      = 2026-041J
CENTER_NAME    = EARTH
REF_FRAME      = TEME
TIME_SYSTEM    = UTC
MEAN_ELEMENT_THEORY = SGP/SGP4

EPOCH          = 2026-03-18T20:00:01.999008
MEAN_MOTION    = 15.75206832
ECCENTRICITY   = .0001015
INCLINATION    = 53.1606
RA_OF_ASC_NODE = 16.3832
ARG_OF_PERICENTER = 99.7391
MEAN_ANOMALY   = 257.8371

EPHEMERIS_TYPE = 0
CLASSIFICATION_TYPE = U
NORAD_CAT_ID   = 68048
ELEMENT_SET_NO = 999
REV_AT_EPOCH   = 384
BSTAR          = .42143E-3
MEAN_MOTION_DOT = .64362E-3
MEAN_MOTION_DDOT = 0

CCSDS_OMM_VERS = 2.0
CREATION_DATE  = 
ORIGINATOR     = 

OBJECT_NAME    = STARLINK-36885
OBJECT_ID      = 2026-041K
CENTER_NAME    = EARTH
REF_FRAME      = TEME
TIME_SYSTEM    = UTC
MEAN_ELEMENT_THEORY = SGP/SGP4

EPOCH          = 2026-03-18T20:00:01.999008
MEAN_MOTION    = 15.75193791
ECCENTRICITY   = .0000881
INCLINATION    = 53.1605
RA_OF_ASC_NODE = 16.3790
ARG_OF_PERICENTER = 113.2131
MEAN_ANOMALY   = 246.2363

EPHEMERIS_TYPE = 0
CLASSIFICATION_TYPE = U
NORAD_CAT_ID   = 68049
ELEMENT_SET_NO = 999
REV_AT_EPOCH   = 384
BSTAR          = .52874E-3
MEAN_MOTION_DOT = .81027E-3
MEAN_MOTION_DDOT = 0

CCSDS_OMM_VERS = 2.0
CREATION_DATE  = 
ORIGINATOR     = 

OBJECT_NAME    = STARLINK-36945
OBJECT_ID      = 2026-041L
CENTER_NAME    = EARTH
REF_FRAME      = TEME
TIME_SYSTEM    = UTC
MEAN_ELEMENT_THEORY = SGP/SGP4

EPOCH          = 2026-03-18T19:42:43.787232
MEAN_MOTION    = 15.81114722
ECCENTRICITY   = .0002021
INCLINATION    = 53.1600
RA_OF_ASC_NODE = 16.2992
ARG_OF_PERICENTER = 125.6348
MEAN_ANOMALY   = 234.4863

EPHEMERIS_TYPE = 0
CLASSIFICATION_TYPE = U
NORAD_CAT_ID   = 68050
ELEMENT_SET_NO = 999
REV_AT_EPOCH   = 266
BSTAR          = .25503E-2
MEAN_MOTION_DOT = .541492E-2
MEAN_MOTION_DDOT = 0

CCSDS_OMM_VERS = 2.0
CREATION_DATE  = 
ORIGINATOR     = 

OBJECT_NAME    = STARLINK-35911
OBJECT_ID      = 2026-041M
CENTER_NAME    = EARTH
REF_FRAME      = TEME
TIME_SYSTEM    = UTC
MEAN_ELEMENT_THEORY = SGP/SGP4

EPOCH          = 2026-03-18T07:32:16.912032
MEAN_MOTION    = 15.80945826
ECCENTRICITY   = .00010632
INCLINATION    = 53.1598
RA_OF_ASC_NODE = 18.8240
ARG_OF_PERICENTER = 72.6086
MEAN_ANOMALY   = 287.5053

EPHEMERIS_TYPE = 0
CLASSIFICATION_TYPE = U
NORAD_CAT_ID   = 68051
ELEMENT_SET_NO = 999
REV_AT_EPOCH   = 258
BSTAR          = .94187403E-3
MEAN_MOTION_DOT = .189979E-2
MEAN_MOTION_DDOT = 0

CCSDS_OMM_VERS = 2.0
CREATION_DATE  = 
ORIGINATOR     = 

OBJECT_NAME    = STARLINK-35808
OBJECT_ID      = 2026-041N
CENTER_NAME    = EARTH
REF_FRAME      = TEME
TIME_SYSTEM    = UTC
MEAN_ELEMENT_THEORY = SGP/SGP4

EPOCH          = 2026-03-18T19:39:29.239488
MEAN_MOTION    = 15.81114334
ECCENTRICITY   = .0002006
INCLINATION    = 53.1600
RA_OF_ASC_NODE = 16.2835
ARG_OF_PERICENTER = 130.5238
MEAN_ANOMALY   = 229.5960

EPHEMERIS_TYPE = 0
CLASSIFICATION_TYPE = U
NORAD_CAT_ID   = 68052
ELEMENT_SET_NO = 999
REV_AT_EPOCH   = 266
BSTAR          = .24792E-2
MEAN_MOTION_DOT = .525354E-2
MEAN_MOTION_DDOT = 0

CCSDS_OMM_VERS = 2.0
CREATION_DATE  = 
ORIGINATOR     = 

OBJECT_NAME    = STARLINK-36919
OBJECT_ID      = 2026-041P
CENTER_NAME    = EARTH
REF_FRAME      = TEME
TIME_SYSTEM    = UTC
MEAN_ELEMENT_THEORY = SGP/SGP4

EPOCH          = 2026-03-18T19:38:24.441216
MEAN_MOTION    = 15.81044506
ECCENTRICITY   = .0001416
INCLINATION    = 53.1603
RA_OF_ASC_NODE = 16.2776
ARG_OF_PERICENTER = 122.2030
MEAN_ANOMALY   = 237.9130

EPHEMERIS_TYPE = 0
CLASSIFICATION_TYPE = U
NORAD_CAT_ID   = 68053
ELEMENT_SET_NO = 999
REV_AT_EPOCH   = 266
BSTAR          = .18226E-2
MEAN_MOTION_DOT = .378195E-2
MEAN_MOTION_DDOT = 0

